{
  "links" : {
    "next" : "https://api.nasa.gov/neo/rest/v1/feed?start_date=2011-06-16&end_date=2011-06-16&detailed=true&api_key=t0TVs3DtDT2H8Oy2Zy8m2eVrNsAVKAexjcZXUckd",
    "prev" : "https://api.nasa.gov/neo/rest/v1/feed?start_date=2011-06-14&end_date=2011-06-14&detailed=true&api_key=t0TVs3DtDT2H8Oy2Zy8m2eVrNsAVKAexjcZXUckd",
    "self" : "https://api.nasa.gov/neo/rest/v1/feed?start_date=2011-06-15&end_date=2011-06-15&detailed=true&api_key=t0TVs3DtDT2H8Oy2Zy8m2eVrNsAVKAexjcZXUckd"
  },
  "element_count" : 2,
  "near_earth_objects" : {
    "2011-06-15" : [ {
      "links" : {
        "self" : "https://api.nasa.gov/neo/rest/v1/neo/3183847?api_key=t0TVs3DtDT2H8Oy2Zy8m2eVrNsAVKAexjcZXUckd"
      },
      "neo_reference_id" : "3183847",
      "name" : "(2004 LO2)",
      "nasa_jpl_url" : "http://ssd.jpl.nasa.gov/sbdb.cgi?sstr=3183847",
      "absolute_magnitude_h" : 25.0,
      "estimated_diameter" : {
        "kilometers" : {
          "estimated_diameter_min" : 0.02658,
          "estimated_diameter_max" : 0.0594346868
        },
        "meters" : {
          "estimated_diameter_min" : 26.58,
          "estimated_diameter_max" : 59.4346868419
        },
        "miles" : {
          "estimated_diameter_min" : 0.0165160412,
          "estimated_diameter_max" : 0.0369309908
        },
        "feet" : {
          "estimated_diameter_min" : 87.2047272,
          "estimated_diameter_max" : 194.9956979785
        }
      },
      "is_potentially_hazardous_asteroid" : false,
      "close_approach_data" : [ {
        "close_approach_date" : "2011-06-15",
        "epoch_date_close_approach" : 1308121200000,
        "relative_velocity" : {
          "kilometers_per_second" : "15.2727811472",
          "kilometers_per_hour" : "54982.0121297965",
          "miles_per_hour" : "34163.684148095"
        },
        "miss_distance" : {
          "astronomical" : "0.0261740166",
          "lunar" : "10.1816921234",
          "kilometers" : "3915577.25",
          "miles" : "2433026.75"
        },
        "orbiting_body" : "Earth"
      } ],
      "orbital_data" : {
        "orbit_id" : "9",
        "orbit_determination_date" : "2017-04-06 09:12:40",
        "orbit_uncertainty" : "7",
        "minimum_orbit_intersection" : ".0137801",
        "jupiter_tisserand_invariant" : "6.393",
        "epoch_osculation" : "2458000.5",
        "eccentricity" : ".3513090023355662",
        "semi_major_axis" : ".9154446324792729",
        "inclination" : "25.44541410484241",
        "ascending_node_longitude" : "82.62024372465116",
        "orbital_period" : "319.9238008647841",
        "perihelion_distance" : ".5938406919495304",
        "perihelion_argument" : "309.4540550035179",
        "aphelion_distance" : "1.237048573009015",
        "perihelion_time" : "2458049.693271706018",
        "mean_anomaly" : "304.6443879251997",
        "mean_motion" : "1.125267951389944",
        "equinox" : "J2000"
      }
    }, {
      "links" : {
        "self" : "https://api.nasa.gov/neo/rest/v1/neo/3567973?api_key=t0TVs3DtDT2H8Oy2Zy8m2eVrNsAVKAexjcZXUckd"
      },
      "neo_reference_id" : "3567973",
      "name" : "(2011 LT17)",
      "nasa_jpl_url" : "http://ssd.jpl.nasa.gov/sbdb.cgi?sstr=3567973",
      "absolute_magnitude_h" : 21.6,
      "estimated_diameter" : {
        "kilometers" : {
          "estimated_diameter_min" : 0.1272198785,
          "estimated_diameter_max" : 0.2844722965
        },
        "meters" : {
          "estimated_diameter_min" : 127.2198785394,
          "estimated_diameter_max" : 284.4722965033
        },
        "miles" : {
          "estimated_diameter_min" : 0.0790507431,
          "estimated_diameter_max" : 0.1767628354
        },
        "feet" : {
          "estimated_diameter_min" : 417.3880663071,
          "estimated_diameter_max" : 933.3080892598
        }
      },
      "is_potentially_hazardous_asteroid" : true,
      "close_approach_data" : [ {
        "close_approach_date" : "2011-06-15",
        "epoch_date_close_approach" : 1308121200000,
        "relative_velocity" : {
          "kilometers_per_second" : "13.564860903",
          "kilometers_per_hour" : "48833.499250831",
          "miles_per_hour" : "30343.2373539399"
        },
        "miss_distance" : {
          "astronomical" : "0.0119147738",
          "lunar" : "4.6348471642",
          "kilometers" : "1782424.75",
          "miles" : "1107547.375"
        },
        "orbiting_body" : "Earth"
      } ],
      "orbital_data" : {
        "orbit_id" : "21",
        "orbit_determination_date" : "2017-04-06 08:53:19",
        "orbit_uncertainty" : "2",
        "minimum_orbit_intersection" : ".00251047",
        "jupiter_tisserand_invariant" : "5.554",
        "epoch_osculation" : "2458000.5",
        "eccentricity" : ".2874280763549985",
        "semi_major_axis" : "1.099697548769544",
        "inclination" : "20.89704919754873",
        "ascending_node_longitude" : "83.47681389781685",
        "orbital_period" : "421.2193488056898",
        "perihelion_distance" : ".7836135977544068",
        "perihelion_argument" : "270.6143290704337",
        "aphelion_distance" : "1.415781499784681",
        "perihelion_time" : "2457902.169484916533",
        "mean_anomaly" : "84.03931474282277",
        "mean_motion" : ".8546615938245266",
        "equinox" : "J2000"
      }
    } ]
  }
}